[{"OBJECT_NAME":"STARLINK-30178","OBJECT_ID":"2023-105T","EPOCH":"2026-03-09T22:00:01.999584","MEAN_MOTION":15.22405085,"ECCENTRICITY":8.111e-5,"INCLINATION":42.9995,"RA_OF_ASC_NODE":258.5418,"ARG_OF_PERICENTER":319.8962,"MEAN_ANOMALY":154.376,"EPHEMERIS_TYPE":0,"CLASSIFICATION_TYPE":"U","NORAD_CAT_ID":57447,"ELEMENT_SET_NO":999,"REV_AT_EPOCH":578,"BSTAR":0.0055738617,"MEAN_MOTION_DOT":0.00133479,"MEAN_MOTION_DDOT":0},{"OBJECT_NAME":"COSMOS 2251 DEB","OBJECT_ID":"1993-036BUL","EPOCH":"2026-03-05T09:43:49.078560","MEAN_MOTION":15.21602098,"ECCENTRICITY":0.00125938,"INCLINATION":74.0076,"RA_OF_ASC_NODE":92.2729,"ARG_OF_PERICENTER":267.7507,"MEAN_ANOMALY":157.3736,"EPHEMERIS_TYPE":0,"CLASSIFICATION_TYPE":"U","NORAD_CAT_ID":39554,"ELEMENT_SET_NO":999,"REV_AT_EPOCH":65637,"BSTAR":0.0036804399,"MEAN_MOTION_DOT":0.00084191,"MEAN_MOTION_DDOT":0}]
